[{"OBJECT_NAME":"IONOSFERA-M 2","OBJECT_ID":"2024-199B","EPOCH":"2026-03-09T22:15:30.586176","MEAN_MOTION":14.22737815,"ECCENTRICITY":3.184e-5,"INCLINATION":98.7324,"RA_OF_ASC_NODE":302.9812,"ARG_OF_PERICENTER":122.4874,"MEAN_ANOMALY":237.6335,"EPHEMERIS_TYPE":0,"CLASSIFICATION_TYPE":"U","NORAD_CAT_ID":61736,"ELEMENT_SET_NO":999,"REV_AT_EPOCH":11671,"BSTAR":4.5235484e-5,"MEAN_MOTION_DOT":5.7e-7,"MEAN_MOTION_DDOT":0},{"OBJECT_NAME":"FENGYUN 1C DEB","OBJECT_ID":"1999-025EAD","EPOCH":"2026-03-07T20:16:09.200352","MEAN_MOTION":14.17614983,"ECCENTRICITY":0.00484309,"INCLINATION":98.7415,"RA_OF_ASC_NODE":116.6329,"ARG_OF_PERICENTER":235.8517,"MEAN_ANOMALY":123.8061,"EPHEMERIS_TYPE":0,"CLASSIFICATION_TYPE":"U","NORAD_CAT_ID":36707,"ELEMENT_SET_NO":999,"REV_AT_EPOCH":65285,"BSTAR":0.00090454202,"MEAN_MOTION_DOT":1.817e-5,"MEAN_MOTION_DDOT":0}]
